CALSPHERE 1             
1 00900U 64063C   22026.21922407  .00000333  00000+0  34550-3 0  9995
2 00900  90.1667  38.3334 0029262  90.0097  39.4260 13.73667340851132
CALSPHERE 2             
1 00902U 64063E   22025.55698032  .00000013  00000+0  68135-5 0  9990
2 00902  90.1788  41.3039 0017729 196.7630 287.4968 13.52705569639919
LCS 1                   
1 01361U 65034C   22025.63653591  .00000005  00000+0 -38123-3 0  9993
2 01361  32.1459  24.3860 0013299  92.0927 268.1093  9.89300527 51089
TEMPSAT 1               
1 01512U 65065E   22025.80730201  .00000022  00000+0  25290-4 0  9998
2 01512  89.9015 219.8903 0071711  71.6528 301.5069 13.33444504746362
CALSPHERE 4A            
1 01520U 65065H   22025.82683163  .00000070  00000+0  11928-3 0  9998
2 01520  90.0050 130.2039 0067769 306.0061 177.8333 13.35866676748612
OPS 5712 (P/L 160)      
1 02826U 67053A   22025.90069842  .00000961  00000+0  26411-3 0  9990
2 02826  69.9268 263.3560 0008143 214.1578 145.9032 14.49943484832062
OPS 5712 (P/L 153)      
1 02874U 67053H   22026.16556492 -.00000025  00000+0  20181-4 0  9995
2 02874  69.9751 309.9103 0005001 134.6604 225.4910 13.96386264783442
SURCAL 150B             
1 02909U 67053J   22026.15821424  .00001471  00000+0  29995-3 0  9999
2 02909  69.9463 259.0202 0007242 239.4980 120.5446 14.62983772843296
RIGIDSPHERE 2 (LCS 4)   
1 05398U 71067E   22025.86863040  .00000256  00000+0  82987-4 0  9992
2 05398  87.6183  62.3309 0065031 134.3668 226.2883 14.34096533643821
COSMOS 2493 (SKRL-756 1)
1 39490U 13078A   22026.40697656  .00000700  00000+0  71675-4 0  9995
2 39490  82.4186  10.2743 0016512 203.3238 156.7233 14.89013561438885
COSMOS 2494 (SKRL-756 2)
1 39491U 13078B   22026.45084059  .00000748  00000+0  73857-4 0  9994
2 39491  82.4190   4.3173 0021749 180.9719 179.1462 14.90425950439182
